HELIOS 1B               
1 25977U 99064A   20269.04603951  .00000027  00000-0  10460-4 0  9999
2 25977  98.2937  67.4749 0002110  58.2324 301.9093 14.82495369121173
TERRA                   
1 25994U 99068A   20269.15325781 -.00000008  00000-0  83168-5 0  9992
2 25994  98.2051 342.0187 0001469  98.2326 261.9043 14.57111118104832
SL-16 R/B               
1 26070U 00006B   20268.45717179 -.00000193  00000-0 -74243-4 0  9999
2 26070  71.0018 325.2108 0017895 326.9439  33.0564 14.15469011 66646
MTI                     
1 26102U 00014A   20268.19957385  .00003627  00000-0  52668-4 0  9990
2 26102  97.4871 155.2664 0005955 213.6023 146.4855 15.56521466139871
TITAN 4B R/B            
1 26474U 00047B   20269.07352603  .00000099  00000-0  19467-4 0  9998
2 26474  67.9940 161.4766 0051030  87.7437 272.9548 14.95989786 94226
ENVISAT                 
1 27386U 02009A   20268.99419715  .00000011  00000-0  16939-4 0  9994
2 27386  98.1392 270.8182 0001232  86.5195 326.4594 14.37992748972926
IDEFIX & ARIANE 42P R/B 
1 27422U 02021B   20268.65248329 -.00000007  00000-0  13705-4 0  9997
2 27422  98.3619 225.6620 0011240 301.7848  58.2240 14.29294181959338
AQUA                    
1 27424U 02022A   20268.84729293  .00000071  00000-0  25824-4 0  9990
2 27424  98.1968 208.0349 0002633  58.1144  35.4920 14.57115522978342
CZ-4B R/B               
1 27432U 02024C   20268.47775816 -.00000027  00000-0  10213-4 0  9990
2 27432  99.0913 272.3633 0049456 256.8284 218.3975 14.14097236947642
MIDORI II (ADEOS-II)    
1 27597U 02056A   20268.44059592  .00000028  00000-0  28710-4 0  9991
2 27597  98.5278 213.5754 0002111  72.6457 287.4955 14.27460369925934
H-2A R/B                
1 27601U 02056E   20268.68645250  .00000046  00000-0  31695-4 0  9991
2 27601  98.2189 299.3162 0071713 343.0567 120.1751 14.31969514928890
CZ-4B R/B               
1 28059U 03049C   20268.37553585  .00000023  00000-0  17331-4 0  9993
2 28059  98.4817 186.0054 0049686 194.9110 165.0623 14.52610710897177
CZ-2C R/B               
1 28222U 04012C   20268.68710476  .00000431  00000-0  29633-4 0  9995
2 28222  97.6884 231.5559 0048336  51.7540 359.0588 15.10468965900974
SL-16 R/B               
1 28353U 04021B   20267.94706876 -.00000344  00000-0 -15499-3 0  9996
2 28353  70.9977  92.7562 0005803 210.7634 149.3149 14.14236341841072
CZ-4B R/B               
1 28415U 04035C   20269.17420499  .00000071  00000-0  89657-5 0  9995
2 28415  97.6046 309.6081 0051849  14.2758 345.9920 15.06910927878651
CZ-2C R/B               
1 28480U 04046B   20268.35971032 -.00000038  00000-0  12049-5 0  9997
2 28480  98.0717 295.6057 0140705 292.4204  76.6264 14.25728191824511
ARIANE 5 R/B            
1 28499U 04049H   20269.22761186  .00000030  00000-0  11303-4 0  9996
2 28499  98.0593  11.3427 0091087 311.3971 102.7159 14.80046011850896
CZ-2D R/B               
1 28738U 05024B   20268.31473910  .00000221  00000-0  16444-4 0  9993
2 28738  97.3790 287.5920 0011424 194.6183 165.4719 15.12102372836365
SUZAKU (ASTRO-EII)      
1 28773U 05025A   20268.20485535  .00001079  00000-0  47933-4 0  9996
2 28773  31.3818  94.4894 0004230 122.3231 237.7826 15.17690424838973
ALOS (DAICHI)           
1 28931U 06002A   20268.53668101  .00000064  00000-0  21267-4 0  9991
2 28931  97.8532 249.4558 0001760  96.2602 263.8786 14.62740380782186
H-2A R/B                
1 28932U 06002B   20268.49672587  .00000568  00000-0  58058-4 0  9997
2 28932  98.3287 264.1414 0088638 358.4654 113.9597 14.92289515795915
AKARI (ASTRO-F)         
1 28939U 06005A   20268.69749267  .00005013  00000-0  13263-3 0  9997
2 28939  98.2419 254.2878 0091621 337.8361  21.8929 15.34751977796116
RESURS-DK 1             
1 29228U 06021A   20268.47420915  .00000065  00000-0  12273-4 0  9992
2 29228  69.9345 295.9170 0007452 293.9686  66.0694 15.02568720787622
GENESIS 1               
1 29252U 06029A   20268.74491485  .00000164  00000-0  17911-4 0  9991
2 29252  64.5214 336.8106 0010243  23.2565 336.9020 15.18212024783258
CZ-4B R/B               
1 29507U 06046C   20269.11124320 -.00000628  00000-0 -43559-4 0  9990
2 29507  97.7347 290.7099 0049538 186.6387 173.4186 15.00574980760367
CZ-2C R/B               
1 31114U 07010B   20268.49295582  .00000025  00000-0  30573-4 0  9999
2 31114  98.2506 114.6686 0059377 339.6284  20.2526 14.19331191697057
COSMO-SKYMED 1          
1 31598U 07023A   20269.12336423 -.00000353  00000-0 -37771-4 0  9993
2 31598  97.8881  90.8377 0001495  80.7671 279.3703 14.82149364719595
GENESIS 2               
1 31789U 07028A   20268.49196941  .00000457  00000-0  32861-4 0  9996
2 31789  64.5062  19.4221 0034528 234.0728 125.7190 15.17354779730206
COSMOS 2428             
1 31792U 07029A   20269.00721614 -.00000312  00000-0 -14324-3 0  9995
2 31792  70.9010  63.8605 0010713 283.8927  76.1002 14.12277930682929
SL-16 R/B               
1 31793U 07029B   20268.49695657  .00000113  00000-0  83785-4 0  9990
2 31793  70.9765  38.3040 0001753 257.5846 166.3764 14.14430141683687
KORONAS-FOTON           
1 33504U 09003A   20268.33162951  .00000230  00000-0  10346-4 0  9998
2 33504  82.4404 124.4473 0017711 299.6934  60.2535 15.15704249642464
H-2A R/B                
1 38341U 12025E   20268.69572484  .00000237  00000-0  35380-4 0  9997
2 38341  98.5125  70.2091 0054285 273.1922  86.3080 14.84073048452162
CUSAT 2 & FALCON 9 R/B  
1 39271U 13055G   20268.24253853  .00003688  00000-0  88880-4 0  9997
2 39271  80.9678 160.6784 0583393 232.8859 121.7670 14.49069196365032
SL-4 R/B                
1 39679U 14021B   20268.55585653  .00000185  00000-0  27024-4 0  9995
2 39679  51.6186   7.4882 0171086 289.2863  68.9673 15.06489179354284
ALOS-2                  
1 39766U 14029A   20269.06669248  .00000047  00000-0  13218-4 0  9997
2 39766  97.9224   4.2397 0001494  82.8222 277.3132 14.79472999342424
CZ-2C R/B               
1 40306U 14071B   20268.58423758  .00003806  00000-0  80938-4 0  9995
2 40306  97.3327 216.0390 0015946 157.8669 202.3272 15.45498253329181
SL-27 R/B               
1 40354U 14084B   20268.77351002  .00001008  00000-0  25667-4 0  9995
2 40354  74.7389 182.6004 0038236 319.5319  40.3050 15.40371643323420
YAOGAN 29               
1 41038U 15069A   20269.19843343 -.00000036  00000-0  21570-5 0  9991
2 41038  98.0184 257.0448 0000812  48.5060 311.6228 14.80459469261037
ASTRO-H (HITOMI)        
1 41337U 16012A   20267.97014490  .00000226  00000-0  11396-4 0  9993
2 41337  31.0053 105.1090 0012471 324.2190  35.7608 14.98709640252291
SHENZHOU-11 MODULE      
1 41868U 16061G   20268.63810775  .00338911  71819-4  20085-3 0  9999
2 41868  42.7825 227.9667 0011274 164.2643   7.5625 16.17556391222002
HXMT (HUIYAN)           
1 42758U 17034A   20269.10674769  .00000130  00000-0  21793-4 0  9990
2 42758  43.0172 209.2819 0011724 294.9423 244.3454 15.08893573180929
CZ-2C R/B               
1 43521U 18054D   20268.52020439  .00000698  00000-0  39600-4 0  9991
2 43521  35.1539 289.4006 0083313 271.4962  87.6210 15.11081074124145
AEOLUS                  
1 43600U 18066A   20269.06133392  .00038469  00000-0  15055-3 0  9999
2 43600  96.7215 273.9624 0005617  85.8608 274.3306 15.86896525121163
SAOCOM 1A               
1 43641U 18076A   20268.79407760 -.00000449  00000-0 -49842-4 0  9998
2 43641  97.8898  93.4942 0001418  82.6638 277.4745 14.82144519106313
CREW DRAGON DEMO-1 DEB  
1 44064U 19011B   20268.82381244  .00022225  00000-0  20653-3 0  9992
2 44064  51.6330 168.1338 0003829  86.2443 273.8990 15.67334588 88483
